{"type": "FeatureCollection", "features": [{"type": "Feature", "properties": {"norad_id": 36828, "name": "BEIDOU-2 IGSO-1 (C06)", "group": "beidou", "lat": 13.331047120522914, "lon": 174.36728990160276, "alt_km": 35988.59161789481, "timestamp": "2025-12-22T22:44:21.240450+00:00", "meta": {"OBJECT_NAME": "BEIDOU-2 IGSO-1 (C06)", "OBJECT_ID": "2010-036A", "EPOCH": "2025-12-20T21:47:26.739168", "MEAN_MOTION": 1.00282395, "ECCENTRICITY": 0.0051798, "INCLINATION": 54.2882, "RA_OF_ASC_NODE": 164.5739, "ARG_OF_PERICENTER": 215.2932, "MEAN_ANOMALY": 144.6604, "EPHEMERIS_TYPE": 0, "CLASSIFICATION_TYPE": "U", "NORAD_CAT_ID": 36828, "ELEMENT_SET_NO": 999, "REV_AT_EPOCH": 5631, "BSTAR": 0, "MEAN_MOTION_DOT": -5.5e-07, "MEAN_MOTION_DDOT": 0}, "tle": {"line1": "1 36828U 10036A   25354.90794837 -.00000055  00000+0  00000+0 0  9992", "line2": "2 36828  54.2882 164.5739 0051798 215.2932 144.6604  1.00282395 56317"}}, "geometry": {"type": "Point", "coordinates": [174.36728990160276, 13.331047120522914]}}, {"type": "Feature", "properties": {"norad_id": 37210, "name": "BEIDOU-2 G4 (C04)", "group": "beidou", "lat": 0.9250976649305602, "lon": -127.11972528089495, "alt_km": 35747.89326615377, "timestamp": "2025-12-22T22:44:21.240473+00:00", "meta": {"OBJECT_NAME": "BEIDOU-2 G4 (C04)", "OBJECT_ID": "2010-057A", "EPOCH": "2025-12-22T13:55:35.048928", "MEAN_MOTION": 1.00271893, "ECCENTRICITY": 0.00104171, "INCLINATION": 3.2075, "RA_OF_ASC_NODE": 69.9014, "ARG_OF_PERICENTER": 193.311, "MEAN_ANOMALY": 197.1519, "EPHEMERIS_TYPE": 0, "CLASSIFICATION_TYPE": "U", "NORAD_CAT_ID": 37210, "ELEMENT_SET_NO": 999, "REV_AT_EPOCH": 5552, "BSTAR": 0, "MEAN_MOTION_DOT": -9.2e-07, "MEAN_MOTION_DDOT": 0}, "tle": {"line1": "1 37210U 10057A   25356.58026677 -.00000092  00000+0  00000+0 0  9998", "line2": "2 37210   3.2075  69.9014 0010417 193.3110 197.1519  1.00271893 55523"}}, "geometry": {"type": "Point", "coordinates": [-127.11972528089495, 0.9250976649305602]}}, {"type": "Feature", "properties": {"norad_id": 37256, "name": "BEIDOU-2 IGSO-2 (C07)", "group": "beidou", "lat": -47.83233958832549, "lon": 179.83076024928195, "alt_km": 35659.260809551684, "timestamp": "2025-12-22T22:44:21.240488+00:00", "meta": {"OBJECT_NAME": "BEIDOU-2 IGSO-2 (C07)", "OBJECT_ID": "2010-068A", "EPOCH": "2025-12-21T17:07:55.147872", "MEAN_MOTION": 1.00283664, "ECCENTRICITY": 0.00485428, "INCLINATION": 47.8695, "RA_OF_ASC_NODE": 274.0391, "ARG_OF_PERICENTER": 216.3693, "MEAN_ANOMALY": 325.0635, "EPHEMERIS_TYPE": 0, "CLASSIFICATION_TYPE": "U", "NORAD_CAT_ID": 37256, "ELEMENT_SET_NO": 999, "REV_AT_EPOCH": 5501, "BSTAR": 0, "MEAN_MOTION_DOT": -1.86e-06, "MEAN_MOTION_DDOT": 0}, "tle": {"line1": "1 37256U 10068A   25355.71383273 -.00000186  00000+0  00000+0 0  9996", "line2": "2 37256  47.8695 274.0391 0048542 216.3693 325.0635  1.00283664 55018"}}, "geometry": {"type": "Point", "coordinates": [179.83076024928195, -47.83233958832549]}}, {"type": "Feature", "properties": {"norad_id": 37384, "name": "BEIDOU-2 IGSO-3 (C08)", "group": "beidou", "lat": 36.32852808934978, "lon": -161.00162753104533, "alt_km": 35686.888190329664, "timestamp": "2025-12-22T22:44:21.240501+00:00", "meta": {"OBJECT_NAME": "BEIDOU-2 IGSO-3 (C08)", "OBJECT_ID": "2011-013A", "EPOCH": "2025-12-22T13:40:14.018880", "MEAN_MOTION": 1.00268611, "ECCENTRICITY": 0.00353737, "INCLINATION": 62.1558, "RA_OF_ASC_NODE": 41.8231, "ARG_OF_PERICENTER": 187.5329, "MEAN_ANOMALY": 174.3937, "EPHEMERIS_TYPE": 0, "CLASSIFICATION_TYPE": "U", "NORAD_CAT_ID": 37384, "ELEMENT_SET_NO": 999, "REV_AT_EPOCH": 5389, "BSTAR": 0, "MEAN_MOTION_DOT": -1.6e-06, "MEAN_MOTION_DDOT": 0}, "tle": {"line1": "1 37384U 11013A   25356.56960670 -.00000160  00000+0  00000+0 0  9997", "line2": "2 37384  62.1558  41.8231 0035373 187.5329 174.3937  1.00268611 53893"}}, "geometry": {"type": "Point", "coordinates": [-161.00162753104533, 36.32852808934978]}}, {"type": "Feature", "properties": {"norad_id": 37763, "name": "BEIDOU-2 IGSO-4 (C09)", "group": "beidou", "lat": 1.2827075091102902, "lon": 168.1571417679025, "alt_km": 36195.05564703239, "timestamp": "2025-12-22T22:44:21.240514+00:00", "meta": {"OBJECT_NAME": "BEIDOU-2 IGSO-4 (C09)", "OBJECT_ID": "2011-038A", "EPOCH": "2025-12-21T10:06:26.864064", "MEAN_MOTION": 1.00280083, "ECCENTRICITY": 0.01491557, "INCLINATION": 54.5854, "RA_OF_ASC_NODE": 167.2693, "ARG_OF_PERICENTER": 230.0944, "MEAN_ANOMALY": 299.1265, "EPHEMERIS_TYPE": 0, "CLASSIFICATION_TYPE": "U", "NORAD_CAT_ID": 37763, "ELEMENT_SET_NO": 999, "REV_AT_EPOCH": 5286, "BSTAR": 0, "MEAN_MOTION_DOT": 5.9e-07, "MEAN_MOTION_DDOT": 0}, "tle": {"line1": "1 37763U 11038A   25355.42114426  .00000059  00000+0  00000+0 0  9995", "line2": "2 37763  54.5854 167.2693 0149155 230.0944 299.1265  1.00280083 52867"}}, "geometry": {"type": "Point", "coordinates": [168.1571417679025, 1.2827075091102902]}}, {"type": "Feature", "properties": {"norad_id": 37948, "name": "BEIDOU-2 IGSO-5 (C10)", "group": "beidou", "lat": -45.40521767689478, "lon": 159.4949002477366, "alt_km": 35389.41455851393, "timestamp": "2025-12-22T22:44:21.240526+00:00", "meta": {"OBJECT_NAME": "BEIDOU-2 IGSO-5 (C10)", "OBJECT_ID": "2011-073A", "EPOCH": "2025-12-21T18:15:38.509632", "MEAN_MOTION": 1.00289356, "ECCENTRICITY": 0.01098403, "INCLINATION": 48.0035, "RA_OF_ASC_NODE": 273.7484, "ARG_OF_PERICENTER": 222.2807, "MEAN_ANOMALY": 321.9503, "EPHEMERIS_TYPE": 0, "CLASSIFICATION_TYPE": "U", "NORAD_CAT_ID": 37948, "ELEMENT_SET_NO": 999, "REV_AT_EPOCH": 5135, "BSTAR": 0, "MEAN_MOTION_DOT": -1.44e-06, "MEAN_MOTION_DDOT": 0}, "tle": {"line1": "1 37948U 11073A   25355.76086238 -.00000144  00000+0  00000+0 0  9991", "line2": "2 37948  48.0035 273.7484 0109840 222.2807 321.9503  1.00289356 51354"}}, "geometry": {"type": "Point", "coordinates": [159.4949002477366, -45.40521767689478]}}, {"type": "Feature", "properties": {"norad_id": 38091, "name": "BEIDOU-2 G5 (C05)", "group": "beidou", "lat": 2.7587951345266477, "lon": 131.51779377758265, "alt_km": 35840.385386614806, "timestamp": "2025-12-22T22:44:21.240538+00:00", "meta": {"OBJECT_NAME": "BEIDOU-2 G5 (C05)", "OBJECT_ID": "2012-008A", "EPOCH": "2025-12-19T16:03:31.750272", "MEAN_MOTION": 1.00268606, "ECCENTRICITY": 0.0012969, "INCLINATION": 3.1258, "RA_OF_ASC_NODE": 70.6861, "ARG_OF_PERICENTER": 231.3522, "MEAN_ANOMALY": 86.1393, "EPHEMERIS_TYPE": 0, "CLASSIFICATION_TYPE": "U", "NORAD_CAT_ID": 38091, "ELEMENT_SET_NO": 999, "REV_AT_EPOCH": 5056, "BSTAR": 0, "MEAN_MOTION_DOT": 7.9e-07, "MEAN_MOTION_DDOT": 0}, "tle": {"line1": "1 38091U 12008A   25353.66911748  .00000079  00000+0  00000+0 0  9996", "line2": "2 38091   3.1258  70.6861 0012969 231.3522  86.1393  1.00268606 50560"}}, "geometry": {"type": "Point", "coordinates": [131.51779377758265, 2.7587951345266477]}}, {"type": "Feature", "properties": {"norad_id": 38250, "name": "BEIDOU-2 M3 (C11)", "group": "beidou", "lat": -54.64705150139493, "lon": -121.6853149443928, "alt_km": 21466.93763760292, "timestamp": "2025-12-22T22:44:21.240550+00:00", "meta": {"OBJECT_NAME": "BEIDOU-2 M3 (C11)", "OBJECT_ID": "2012-018A", "EPOCH": "2025-12-21T23:49:10.133760", "MEAN_MOTION": 1.86230181, "ECCENTRICITY": 0.00240993, "INCLINATION": 55.9124, "RA_OF_ASC_NODE": 310.8468, "ARG_OF_PERICENTER": 275.3188, "MEAN_ANOMALY": 84.4018, "EPHEMERIS_TYPE": 0, "CLASSIFICATION_TYPE": "U", "NORAD_CAT_ID": 38250, "ELEMENT_SET_NO": 999, "REV_AT_EPOCH": 9264, "BSTAR": 0, "MEAN_MOTION_DOT": -6e-07, "MEAN_MOTION_DDOT": 0}, "tle": {"line1": "1 38250U 12018A   25355.99247840 -.00000060  00000+0  00000+0 0  9998", "line2": "2 38250  55.9124 310.8468 0024099 275.3188  84.4018  1.86230181 92640"}}, "geometry": {"type": "Point", "coordinates": [-121.6853149443928, -54.64705150139493]}}, {"type": "Feature", "properties": {"norad_id": 38251, "name": "BEIDOU-2 M4 (C12)", "group": "beidou", "lat": -27.736077462624362, "lon": -70.89689626756885, "alt_km": 21502.401099770188, "timestamp": "2025-12-22T22:44:21.240562+00:00", "meta": {"OBJECT_NAME": "BEIDOU-2 M4 (C12)", "OBJECT_ID": "2012-018B", "EPOCH": "2025-12-21T22:11:20.549760", "MEAN_MOTION": 1.86229896, "ECCENTRICITY": 0.00152556, "INCLINATION": 55.8135, "RA_OF_ASC_NODE": 310.0771, "ARG_OF_PERICENTER": 279.1681, "MEAN_ANOMALY": 80.6551, "EPHEMERIS_TYPE": 0, "CLASSIFICATION_TYPE": "U", "NORAD_CAT_ID": 38251, "ELEMENT_SET_NO": 999, "REV_AT_EPOCH": 9264, "BSTAR": 0, "MEAN_MOTION_DOT": -6e-07, "MEAN_MOTION_DDOT": 0}, "tle": {"line1": "1 38251U 12018B   25355.92454340 -.00000060  00000+0  00000+0 0  9997", "line2": "2 38251  55.8135 310.0771 0015255 279.1681  80.6551  1.86229896 92646"}}, "geometry": {"type": "Point", "coordinates": [-70.89689626756885, -27.736077462624362]}}, {"type": "Feature", "properties": {"norad_id": 38775, "name": "BEIDOU-2 M6 (C14)", "group": "beidou", "lat": 16.81500899954775, "lon": -122.83190964830496, "alt_km": 21557.91277057587, "timestamp": "2025-12-22T22:44:21.240574+00:00", "meta": {"OBJECT_NAME": "BEIDOU-2 M6 (C14)", "OBJECT_ID": "2012-050B", "EPOCH": "2025-12-22T04:08:12.945984", "MEAN_MOTION": 1.86230889, "ECCENTRICITY": 0.00114149, "INCLINATION": 56.3862, "RA_OF_ASC_NODE": 68.7545, "ARG_OF_PERICENTER": 343.263, "MEAN_ANOMALY": 16.7493, "EPHEMERIS_TYPE": 0, "CLASSIFICATION_TYPE": "U", "NORAD_CAT_ID": 38775, "ELEMENT_SET_NO": 999, "REV_AT_EPOCH": 9001, "BSTAR": 0, "MEAN_MOTION_DOT": -3e-07, "MEAN_MOTION_DDOT": 0}, "tle": {"line1": "1 38775U 12050B   25356.17237206 -.00000030  00000+0  00000+0 0  9999", "line2": "2 38775  56.3862  68.7545 0011414 343.2630  16.7493  1.86230889 90014"}}, "geometry": {"type": "Point", "coordinates": [-122.83190964830496, 16.81500899954775]}}]}